LSCTLF3 18.90  0.15 K153S  23.58746   75.79622   69.92181    9.43941  0.3369232  0.29005846   2.2601939    FO 150328     6   1 18.8 min  0.08         Find_Orb   0000 LSCTLF3                     20150328
